JY1SAT (JO-97)          
1 43803U 18099AX  24017.11202586  .00010826  00000+0  78297-3 0  9996
2 43803  97.5443  79.3721 0011687 100.4233 259.8311 15.04147140279810
UWE-4                   
1 43880U 18111E   24017.27299778  .00011336  00000+0  78104-3 0  9996
2 43880  97.6232 284.4486 0017887 160.3186 199.8735 15.05882398276541
JAISAT-1                
1 44419U 19038F   24017.54095285  .00071155  00000+0  13626-2 0  9993
2 44419  97.6849  13.9889 0007009 243.7751 116.2778 15.47771323251471
DUCHIFAT-3              
1 44854U 19089C   24017.00707486  .00015700  00000+0  91925-3 0  9999
2 44854  36.9586 248.9907 0009812 285.9494  74.0170 15.11144564225206
TIANYAN 01              
1 44881U 19093C   24017.54459271  .00001955  00000+0  24556-3 0  9992
2 44881  97.8435  97.2269 0015949  97.9454 262.3571 14.83179072220567
RS-44 & BREEZE-KM R/B   
1 44909U 19096E   24017.59690020  .00000036  00000+0  94584-4 0  9998
2 44909  82.5198 205.4755 0218116  45.8496 316.0310 12.79725976189584
BY70-2                  
1 45857U 20042B   24017.54897821  .00052785  00000+0  37777-2 0  9994
2 45857  97.9206 104.9700 0007258   6.1899 353.9414 15.04192513191595
SALSAT                  
1 46495U 20068K   24017.43707304  .00008195  00000+0  50010-3 0  9997
2 46495  97.7974 333.4290 0016306 109.1932 251.1063 15.10481785181387
RADFXSAT-2 (AO-109)     
1 47311U 21002C   24017.30632245  .00108484  00000+0  12576-2 0  9997
2 47311  60.6735 304.6838 0027897  64.5355 295.8631 15.60684599167425
UVSQ-SAT                
1 47438U 21006AB  24017.14504322  .00034281  00000+0  10338-2 0  9994
2 47438  97.3538  77.1288 0008885  48.0479 312.1520 15.34184690165330
LEDSAT                  
1 49069U 21073D   24017.17181579  .00015799  00000+0  74511-3 0  9995
2 49069  97.4579  89.8472 0022808  96.5966 263.7866 15.19325880133333
XW-3 (CAS-9)            
1 50466U 21131B   24017.59407267  .00001246  00000+0  41552-3 0  9995
2 50466  98.5384 103.3788 0003751 205.9401 154.1599 14.39304929108194
TEVEL-3                 
1 50988U 22002E   24017.56310253  .00055913  00000+0  14424-2 0  9994
2 50988  97.4047  89.5799 0005091 185.9765 174.1420 15.38967957111569
TEVEL-8                 
1 50989U 22002F   24017.46262788  .00052957  00000+0  13717-2 0  9992
2 50989  97.4065  89.5599 0005043 183.4289 176.6922 15.38857724111541
TEVEL-5                 
1 50998U 22002Q   24017.54501365  .00063746  00000+0  15549-2 0  9991
2 50998  97.4042  90.3001 0005824 179.2374 180.8883 15.40638557111614
TEVEL-6                 
1 50999U 22002R   24017.47982455  .00061331  00000+0  14984-2 0  9997
2 50999  97.4041  90.2213 0005854 179.1841 180.9416 15.40600985111605
TEVEL-1                 
1 51013U 22002AF  24017.58142638  .00053406  00000+0  13820-2 0  9990
2 51013  97.4041  89.4984 0004910 184.3887 175.7316 15.38885585111562
TEVEL-7                 
1 51062U 22002CG  24017.58899439  .00056146  00000+0  14500-2 0  9992
2 51062  97.4060  89.6579 0005074 183.5432 176.5778 15.38933307111565
TEVEL-4                 
1 51063U 22002CH  24017.54209667  .00058379  00000+0  15145-2 0  9993
2 51063  97.4059  89.5602 0004972 184.2059 175.9145 15.38784125111551
TEVEL-2                 
1 51069U 22002CP  24017.56344691  .00056698  00000+0  14616-2 0  9992
2 51069  97.4044  89.5472 0005059 185.6055 174.5135 15.38986464111569
GREENCUBE               
1 53106U 22080B   24008.96757248 -.00000003  00000+0  00000+0 0  9991
2 53106  70.1365 248.1941 0008281 140.2235 219.9032  6.42557590 34976
CYCLOPS (RS29S)         
1 53373U 22096D   24016.76609816  .00188687  00000+0  14756-2 0  9998
2 53373  97.3958 293.9799 0005342  98.1357 262.0512 15.71036588 80784
MONITOR-1 (RS32S)       
1 53374U 22096E   24017.58169064  .00164826  00000+0  15585-2 0  9996
2 53374  97.3895 293.9438 0005623  97.4823 262.7076 15.66450747 80869
KUZBASS-300 (RS34S)     
1 53375U 22096F   24017.56639485  .00080730  00000+0  12110-2 0  9996
2 53375  97.3984 292.1590 0004531  88.5866 271.5907 15.54634919 80733
UTMN (RS23S)            
1 53376U 22096G   24017.56048230  .00093161  00000+0  12783-2 0  9997
2 53376  97.3962 292.5924 0004441  94.5010 265.6752 15.57017537 80762
MIET-AIS (RS28S)        
1 53377U 22096H   24017.60564293  .00068728  00000+0  11241-2 0  9994
2 53377  97.4002 291.8420 0003805  88.4311 271.7377 15.52286473 80719
KAI-1 (RS26S)           
1 53378U 22096J   24017.60511281  .00051346  00000+0  98628-3 0  9997
2 53378  97.4037 290.8453 0003755  90.3278 269.8403 15.47788169 80644
ISOI (RS19S)            
1 53381U 22096M   24017.60323533  .00067790  00000+0  10570-2 0  9991
2 53381  97.4018 292.4225 0003650  63.5790 296.5838 15.53622068 80750
CUBESX-HSE-2 (RS21S)    
1 53383U 22096P   24017.58937648  .00088303  00000+0  12283-2 0  9994
2 53383  97.3970 292.8812 0004154  59.1603 301.0060 15.56667365 80782
SIREN (RS30S)           
1 53384U 22096Q   24017.58122728  .00060299  00000+0  10467-2 0  9996
2 53384  97.4011 291.7401 0003749  54.6856 305.4746 15.50646865 80708
GEOSCAN-EDELVEIS (RS20S)
1 53385U 22096R   24017.38865804  .00305813  00000+0  17469-2 0  9997
2 53385  97.3917 295.9900 0004829  72.3774 287.8019 15.78029812 81006
CAS-5A (FO-118)         
1 54684U 22167C   24017.60857892  .00025758  00000+0  11475-2 0  9990
2 54684  97.5844 160.1482 0011496 317.5318  42.5027 15.21363102 61198
STRATOSAT-TK 1 (RS52S)  
1 57167U 23091B   24017.57815037  .00014589  00000+0  96182-3 0  9996
2 57167  97.6358  71.4743 0015482 278.7937  81.1537 15.07491552 30686
UMKA 1 (RS40S)          
1 57172U 23091G   24017.62168539  .00007358  00000+0  51510-3 0  9998
2 57172  97.6369  71.2621 0016196 278.7315  81.2077 15.05443078 30677
CUBESX-HSE 3 (RS42S)    
1 57178U 23091N   24017.60354003  .00009415  00000+0  64814-3 0  9992
2 57178  97.6407  71.3852 0016498 273.0718  86.8620 15.05986994 30677
MONITOR-4 (RS57S)       
1 57182U 23091S   24017.62196648  .00009365  00000+0  64891-3 0  9997
2 57182  97.6393  71.3302 0017252 274.0274  85.8981 15.05733599 30673
MONITOR-2 (RS39S)       
1 57184U 23091U   24017.61237969  .00006297  00000+0  43707-3 0  9994
2 57184  97.6403  71.5083 0013095 267.2039  92.7689 15.05859231 30684
SVYATOBOR 1 (RS60S)     
1 57187U 23091X   24017.61718491  .00008593  00000+0  58196-3 0  9990
2 57187  97.6403  71.6584 0012858 265.0238  94.9522 15.06664709 30693
VIZARD-METEO (RS38S)    
1 57189U 23091Z   24017.54697618  .00010293  00000+0  68153-3 0  9995
2 57189  97.6395  71.7314 0011753 263.1404  96.8487 15.07461543 30697
NANOZOND 1 (RS49S)      
1 57190U 23091AA  24017.59684417  .00013365  00000+0  85526-3 0  9991
2 57190  97.6368  71.9023 0010215 269.0309  90.9749 15.08664732 30714
POLYTECH-UNIVERSE 3 (R*)
1 57191U 23091AB  24017.60574353  .00006552  00000+0  45562-3 0  9997
2 57191  97.6368  71.2784 0018614 285.8421  74.0754 15.05701874 30674
UTMN 2 (RS27S)          
1 57203U 23091AP  24017.56772165  .00010057  00000+0  67073-3 0  9993
2 57203  97.6385  71.7027 0012361 263.3901  96.5920 15.07193562 30696
ARCCUBE 1 (RS25S)       
1 57205U 23091AR  24017.57968142  .00015327  00000+0  96942-3 0  9990
2 57205  97.6339  71.8778 0010778 271.0984  88.9010 15.09057330 30710
KUZGTU 1 (RS47S)        
1 57217U 23091AV  24017.60284221  .00009551  00000+0  65834-3 0  9994
2 57217  97.6383  71.3211 0016394 274.5661  85.3693 15.05936389 30678
HADES-D (SO-121)        
1 58567U 23174CY  24017.47470613  .00032484  00000+0  16651-2 0  9995
2 58567  97.4747  94.3206 0015671  42.8290 317.4160 15.16388563 10706
